start=new Date('2022-11-20T00:00:00.000Z').valueOf();
sats=[{"REF_FRAME":"TEME","ECCENTRICITY":"0.00012320","INCLINATION":"53.0532","TIME_SYSTEM":"UTC","OBJECT_TYPE":"PAYLOAD","SEMIMAJOR_AXIS":"6925.356","EPHEMERIS_TYPE":"0","PERIOD":"95.592","PERIAPSIS":"546.368","OBJECT_NAME":"STARLINK-2248","TLE_LINE1":"1 48591U 21041AQ  22323.78215706  .00000462  00000-0  49925-4 0  9998","FILE":"3663561","LAUNCH_DATE":"2021-05-15","MEAN_MOTION_DOT":"0.00000462","CENTER_NAME":"EARTH","SITE":"AFETR","MEAN_ANOMALY":"279.5644","COUNTRY_CODE":"US","REV_AT_EPOCH":"8434","OBJECT_ID":"2021-041AQ","DECAY_DATE":null,"MEAN_ELEMENT_THEORY":"SGP4","GP_ID":"218235438","RCS_SIZE":"LARGE","ELEMENT_SET_NO":"999","APOAPSIS":"548.074","EPOCH":"2022-11-19T18:46:18.369984","NORAD_CAT_ID":"48591","BSTAR":"0.00004992500000","TLE_LINE2":"2 48591  53.0532 145.1579 0001232  80.5484 279.5644 15.06397561 84345","ARG_OF_PERICENTER":"80.5484","MEAN_MOTION":"15.06397561","CLASSIFICATION_TYPE":"U","RA_OF_ASC_NODE":"145.1579","MEAN_MOTION_DDOT":"0.0000000000000"},{"FILE":"3663561","TLE_LINE1":"1 48592U 21041AR  22323.79229687  .00001942  00000-0  14919-3 0  9991","LAUNCH_DATE":"2021-05-15","MEAN_MOTION_DOT":"0.00001942","CENTER_NAME":"EARTH","SITE":"AFETR","INCLINATION":"53.0548","ECCENTRICITY":"0.00014130","REF_FRAME":"TEME","OBJECT_TYPE":"PAYLOAD","TIME_SYSTEM":"UTC","PERIOD":"95.592","EPHEMERIS_TYPE":"0","SEMIMAJOR_AXIS":"6925.339","OBJECT_NAME":"STARLINK-2249","PERIAPSIS":"546.226","MEAN_MOTION":"15.06403001","ARG_OF_PERICENTER":"72.9023","RA_OF_ASC_NODE":"155.1454","CLASSIFICATION_TYPE":"U","MEAN_MOTION_DDOT":"0.0000000000000","COUNTRY_CODE":"US","MEAN_ANOMALY":"287.2121","RCS_SIZE":"MEDIUM","MEAN_ELEMENT_THEORY":"SGP4","GP_ID":"218236181","DECAY_DATE":null,"OBJECT_ID":"2021-041AR","REV_AT_EPOCH":"8330","ELEMENT_SET_NO":"999","TLE_LINE2":"2 48592  53.0548 155.1454 0001413  72.9023 287.2121 15.06403001 83309","NORAD_CAT_ID":"48592","BSTAR":"0.00014919000000","APOAPSIS":"548.183","EPOCH":"2022-11-19T19:00:54.449568"},{"ELEMENT_SET_NO":"999","TLE_LINE2":"2 48593  53.0543 155.0936 0001735  71.8478 288.2699 15.06401099 83304","EPOCH":"2022-11-19T19:07:34.382208","APOAPSIS":"548.412","BSTAR":"0.00013416000000","NORAD_CAT_ID":"48593","COUNTRY_CODE":"US","MEAN_ANOMALY":"288.2699","MEAN_ELEMENT_THEORY":"SGP4","GP_ID":"218235937","RCS_SIZE":"LARGE","REV_AT_EPOCH":"8330","DECAY_DATE":null,"OBJECT_ID":"2021-041AS","MEAN_MOTION_DDOT":"0.0000000000000","ARG_OF_PERICENTER":"71.8478","MEAN_MOTION":"15.06401099","RA_OF_ASC_NODE":"155.0936","CLASSIFICATION_TYPE":"U","PERIOD":"95.592","EPHEMERIS_TYPE":"0","SEMIMAJOR_AXIS":"6925.345","OBJECT_NAME":"STARLINK-2250","PERIAPSIS":"546.009","INCLINATION":"53.0543","REF_FRAME":"TEME","ECCENTRICITY":"0.00017350","OBJECT_TYPE":"PAYLOAD","TIME_SYSTEM":"UTC","CENTER_NAME":"EARTH","MEAN_MOTION_DOT":"0.00001717","SITE":"AFETR","FILE":"3663561","TLE_LINE1":"1 48593U 21041AS  22323.79692572  .00001717  00000-0  13416-3 0  9990","LAUNCH_DATE":"2021-05-15"},{"RA_OF_ASC_NODE":"125.3417","CLASSIFICATION_TYPE":"U","ARG_OF_PERICENTER":"72.0137","MEAN_MOTION":"15.06385718","MEAN_MOTION_DDOT":"0.0000000000000","MEAN_ELEMENT_THEORY":"SGP4","GP_ID":"218235188","RCS_SIZE":"LARGE","REV_AT_EPOCH":"8372","OBJECT_ID":"2021-041AT","DECAY_DATE":null,"COUNTRY_CODE":"US","MEAN_ANOMALY":"288.0993","TLE_LINE2":"2 48594  53.0543 125.3417 0001298  72.0137 288.0993 15.06385718 83728","APOAPSIS":"548.156","EPOCH":"2022-11-19T18:13:11.474976","BSTAR":"0.00000924420000","NORAD_CAT_ID":"48594","ELEMENT_SET_NO":"999","LAUNCH_DATE":"2021-05-15","FILE":"3663561","TLE_LINE1":"1 48594U 21041AT  22323.75916059 -.00000144  00000-0  92442-5 0  9998","SITE":"AFETR","MEAN_MOTION_DOT":"-0.00000144","CENTER_NAME":"EARTH","OBJECT_TYPE":"PAYLOAD","TIME_SYSTEM":"UTC","INCLINATION":"53.0543","REF_FRAME":"TEME","ECCENTRICITY":"0.00012980","OBJECT_NAME":"STARLINK-2251","PERIAPSIS":"546.358","PERIOD":"95.593","EPHEMERIS_TYPE":"0","SEMIMAJOR_AXIS":"6925.392"},{"ARG_OF_PERICENTER":"75.9019","MEAN_MOTION":"15.06409260","RA_OF_ASC_NODE":"158.4508","CLASSIFICATION_TYPE":"U","MEAN_MOTION_DDOT":"0.0000000000000","COUNTRY_CODE":"US","MEAN_ANOMALY":"284.2155","GP_ID":"218203919","MEAN_ELEMENT_THEORY":"SGP4","RCS_SIZE":"LARGE","REV_AT_EPOCH":"8446","OBJECT_ID":"2021-041AU","DECAY_DATE":null,"ELEMENT_SET_NO":"999","TLE_LINE2":"2 48595  53.0547 158.4508 0001671  75.9019 284.2155 15.06409260 84466","EPOCH":"2022-11-19T01:10:05.432736","APOAPSIS":"548.342","BSTAR":"0.00003662100000","NORAD_CAT_ID":"48595","FILE":"3663316","TLE_LINE1":"1 48595U 21041AU  22323.04867399  .00000264  00000-0  36621-4 0  9991","LAUNCH_DATE":"2021-05-15","MEAN_MOTION_DOT":"0.00000264","CENTER_NAME":"EARTH","SITE":"AFETR","INCLINATION":"53.0547","REF_FRAME":"TEME","ECCENTRICITY":"0.00016710","OBJECT_TYPE":"PAYLOAD","TIME_SYSTEM":"UTC","PERIOD":"95.592","SEMIMAJOR_AXIS":"6925.320","EPHEMERIS_TYPE":"0","OBJECT_NAME":"STARLINK-2252","PERIAPSIS":"546.028"},{"TIME_SYSTEM":"UTC","OBJECT_TYPE":"PAYLOAD","ECCENTRICITY":"0.00015880","REF_FRAME":"TEME","INCLINATION":"53.0530","PERIAPSIS":"546.144","OBJECT_NAME":"STARLINK-2253","EPHEMERIS_TYPE":"0","SEMIMAJOR_AXIS":"6925.379","PERIOD":"95.593","LAUNCH_DATE":"2021-05-15","TLE_LINE1":"1 48596U 21041AV  22323.80062141  .00000876  00000-0  77743-4 0  9997","FILE":"3663561","SITE":"AFETR","MEAN_MOTION_DOT":"0.00000876","CENTER_NAME":"EARTH","OBJECT_ID":"2021-041AV","DECAY_DATE":null,"REV_AT_EPOCH":"8376","RCS_SIZE":"LARGE","GP_ID":"218235682","MEAN_ELEMENT_THEORY":"SGP4","MEAN_ANOMALY":"287.2720","COUNTRY_CODE":"US","NORAD_CAT_ID":"48596","BSTAR":"0.00007774300000","APOAPSIS":"548.344","EPOCH":"2022-11-19T19:12:53.689824","TLE_LINE2":"2 48596  53.0530 155.0735 0001588  72.8443 287.2720 15.06390013 83766","ELEMENT_SET_NO":"999","CLASSIFICATION_TYPE":"U","RA_OF_ASC_NODE":"155.0735","MEAN_MOTION":"15.06390013","ARG_OF_PERICENTER":"72.8443","MEAN_MOTION_DDOT":"0.0000000000000"},{"REV_AT_EPOCH":"8457","DECAY_DATE":null,"OBJECT_ID":"2021-041AW","GP_ID":"218236437","MEAN_ELEMENT_THEORY":"SGP4","RCS_SIZE":"LARGE","MEAN_ANOMALY":"286.4281","COUNTRY_CODE":"US","EPOCH":"2022-11-19T19:23:29.628384","APOAPSIS":"548.328","BSTAR":"-0.00001257700000","NORAD_CAT_ID":"48597","TLE_LINE2":"2 48597  53.0538 155.0283 0001591  73.6882 286.4281 15.06396024 84574","ELEMENT_SET_NO":"999","CLASSIFICATION_TYPE":"U","RA_OF_ASC_NODE":"155.0283","ARG_OF_PERICENTER":"73.6882","MEAN_MOTION":"15.06396024","MEAN_MOTION_DDOT":"0.0000000000000","TIME_SYSTEM":"UTC","OBJECT_TYPE":"PAYLOAD","REF_FRAME":"TEME","ECCENTRICITY":"0.00015910","INCLINATION":"53.0538","PERIAPSIS":"546.124","OBJECT_NAME":"STARLINK-2255","SEMIMAJOR_AXIS":"6925.361","EPHEMERIS_TYPE":"0","PERIOD":"95.592","LAUNCH_DATE":"2021-05-15","TLE_LINE1":"1 48597U 21041AW  22323.80798181 -.00000469  00000-0 -12577-4 0  9992","FILE":"3663561","SITE":"AFETR","MEAN_MOTION_DOT":"-0.00000469","CENTER_NAME":"EARTH"},{"TIME_SYSTEM":"UTC","OBJECT_TYPE":"PAYLOAD","REF_FRAME":"TEME","ECCENTRICITY":"0.00014070","INCLINATION":"53.0539","PERIAPSIS":"546.242","OBJECT_NAME":"STARLINK-2256","EPHEMERIS_TYPE":"0","SEMIMAJOR_AXIS":"6925.351","PERIOD":"95.592","LAUNCH_DATE":"2021-05-15","TLE_LINE1":"1 48598U 21041AX  22323.81168779  .00003248  00000-0  23686-3 0  9996","FILE":"3663561","SITE":"AFETR","MEAN_MOTION_DOT":"0.00003248","CENTER_NAME":"EARTH","REV_AT_EPOCH":"8376","DECAY_DATE":null,"OBJECT_ID":"2021-041AX","GP_ID":"218234689","MEAN_ELEMENT_THEORY":"SGP4","RCS_SIZE":"LARGE","MEAN_ANOMALY":"279.7824","COUNTRY_CODE":"US","APOAPSIS":"548.191","EPOCH":"2022-11-19T19:28:49.825056","BSTAR":"0.00023686000000","NORAD_CAT_ID":"48598","TLE_LINE2":"2 48598  53.0539 155.0294 0001407  80.3324 279.7824 15.06399158 83769","ELEMENT_SET_NO":"999","CLASSIFICATION_TYPE":"U","RA_OF_ASC_NODE":"155.0294","ARG_OF_PERICENTER":"80.3324","MEAN_MOTION":"15.06399158","MEAN_MOTION_DDOT":"0.0000000000000"},{"OBJECT_TYPE":"PAYLOAD","TIME_SYSTEM":"UTC","INCLINATION":"53.0543","ECCENTRICITY":"0.00013540","REF_FRAME":"TEME","OBJECT_NAME":"STARLINK-2274","PERIAPSIS":"546.277","PERIOD":"95.592","EPHEMERIS_TYPE":"0","SEMIMAJOR_AXIS":"6925.350","LAUNCH_DATE":"2021-05-15","FILE":"3663561","TLE_LINE1":"1 48599U 21041AY  22323.77158029  .00001584  00000-0  12521-3 0  9996","SITE":"AFETR","MEAN_MOTION_DOT":"0.00001584","CENTER_NAME":"EARTH","RCS_SIZE":"LARGE","MEAN_ELEMENT_THEORY":"SGP4","GP_ID":"218235439","DECAY_DATE":null,"OBJECT_ID":"2021-041AY","REV_AT_EPOCH":"8492","COUNTRY_CODE":"US","MEAN_ANOMALY":"280.3835","TLE_LINE2":"2 48599  53.0543 130.2079 0001354  79.7307 280.3835 15.06399611 84928","BSTAR":"0.00012521000000","NORAD_CAT_ID":"48599","APOAPSIS":"548.152","EPOCH":"2022-11-19T18:31:04.537056","ELEMENT_SET_NO":"999","RA_OF_ASC_NODE":"130.2079","CLASSIFICATION_TYPE":"U","MEAN_MOTION":"15.06399611","ARG_OF_PERICENTER":"79.7307","MEAN_MOTION_DDOT":"0.0000000000000"},{"TLE_LINE1":"1 48600U 21041AZ  22323.80890321  .00001720  00000-0  13433-3 0  9996","FILE":"3663561","LAUNCH_DATE":"2021-05-15","MEAN_MOTION_DOT":"0.00001720","CENTER_NAME":"EARTH","SITE":"AFETR","ECCENTRICITY":"0.00013590","REF_FRAME":"TEME","INCLINATION":"53.0554","TIME_SYSTEM":"UTC","OBJECT_TYPE":"PAYLOAD","EPHEMERIS_TYPE":"0","SEMIMAJOR_AXIS":"6925.360","PERIOD":"95.592","PERIAPSIS":"546.283","OBJECT_NAME":"STARLINK-2275","MEAN_MOTION":"15.06396389","ARG_OF_PERICENTER":"96.9928","CLASSIFICATION_TYPE":"U","RA_OF_ASC_NODE":"145.0353","MEAN_MOTION_DDOT":"0.0000000000000","MEAN_ANOMALY":"263.1216","COUNTRY_CODE":"US","OBJECT_ID":"2021-041AZ","DECAY_DATE":null,"REV_AT_EPOCH":"8471","RCS_SIZE":"LARGE","GP_ID":"218236182","MEAN_ELEMENT_THEORY":"SGP4","ELEMENT_SET_NO":"999","BSTAR":"0.00013433000000","NORAD_CAT_ID":"48600","APOAPSIS":"548.166","EPOCH":"2022-11-19T19:24:49.237344","TLE_LINE2":"2 48600  53.0554 145.0353 0001359  96.9928 263.1216 15.06396389 84715"}];
